[{"OBJECT_NAME":"STARLINK-35778","OBJECT_ID":"2025-288Q","EPOCH":"2026-03-09T22:00:01.999584","MEAN_MOTION":15.27567244,"ECCENTRICITY":0.00013665,"INCLINATION":43.0003,"RA_OF_ASC_NODE":21.8387,"ARG_OF_PERICENTER":259.3052,"MEAN_ANOMALY":184.3952,"EPHEMERIS_TYPE":0,"CLASSIFICATION_TYPE":"U","NORAD_CAT_ID":66973,"ELEMENT_SET_NO":999,"REV_AT_EPOCH":585,"BSTAR":0.00058021688,"MEAN_MOTION_DOT":0.00015732,"MEAN_MOTION_DDOT":0},{"OBJECT_NAME":"SL-3 R\/B","OBJECT_ID":"1982-079B","EPOCH":"2026-03-09T22:18:18.158976","MEAN_MOTION":15.24805533,"ECCENTRICITY":0.00250364,"INCLINATION":81.1481,"RA_OF_ASC_NODE":192.7939,"ARG_OF_PERICENTER":164.0597,"MEAN_ANOMALY":196.143,"EPHEMERIS_TYPE":0,"CLASSIFICATION_TYPE":"U","NORAD_CAT_ID":13403,"ELEMENT_SET_NO":999,"REV_AT_EPOCH":37773,"BSTAR":0.00032485557,"MEAN_MOTION_DOT":8.157e-5,"MEAN_MOTION_DDOT":0}]
